[
    {
        "OBJECT_NAME": "GSAT0101 (GALILEO-PFM)",
        "OBJECT_ID": "2011-060A",
        "EPOCH": "2026-06-20T08:49:47.538048",
        "MEAN_MOTION": 1.70475663,
        "ECCENTRICITY": 0.0002981,
        "INCLINATION": 56.9933,
        "RA_OF_ASC_NODE": 341.6747,
        "ARG_OF_PERICENTER": 53.546,
        "MEAN_ANOMALY": 306.4763,
        "EPHEMERIS_TYPE": 0,
        "CLASSIFICATION_TYPE": "U",
        "NORAD_CAT_ID": 37846,
        "ELEMENT_SET_NO": 999,
        "REV_AT_EPOCH": 9117,
        "BSTAR": 0,
        "MEAN_MOTION_DOT": -9.6e-07,
        "MEAN_MOTION_DDOT": 0
    },
    {
        "OBJECT_NAME": "GSAT0102 (GALILEO-FM2)",
        "OBJECT_ID": "2011-060B",
        "EPOCH": "2026-06-19T02:46:36.354720",
        "MEAN_MOTION": 1.70475868,
        "ECCENTRICITY": 0.00030078,
        "INCLINATION": 56.9943,
        "RA_OF_ASC_NODE": 341.7092,
        "ARG_OF_PERICENTER": 14.4392,
        "MEAN_ANOMALY": 342.6958,
        "EPHEMERIS_TYPE": 0,
        "CLASSIFICATION_TYPE": "U",
        "NORAD_CAT_ID": 37847,
        "ELEMENT_SET_NO": 999,
        "REV_AT_EPOCH": 9115,
        "BSTAR": 0,
        "MEAN_MOTION_DOT": -9.4e-07,
        "MEAN_MOTION_DDOT": 0
    },
    {
        "OBJECT_NAME": "GSAT0103 (GALILEO-FM3)",
        "OBJECT_ID": "2012-055A",
        "EPOCH": "2026-06-17T11:24:53.398656",
        "MEAN_MOTION": 1.70473345,
        "ECCENTRICITY": 0.00047719,
        "INCLINATION": 55.8068,
        "RA_OF_ASC_NODE": 101.5377,
        "ARG_OF_PERICENTER": 306.3432,
        "MEAN_ANOMALY": 53.5821,
        "EPHEMERIS_TYPE": 0,
        "CLASSIFICATION_TYPE": "U",
        "NORAD_CAT_ID": 38857,
        "ELEMENT_SET_NO": 999,
        "REV_AT_EPOCH": 8501,
        "BSTAR": 0,
        "MEAN_MOTION_DOT": -1.1e-07,
        "MEAN_MOTION_DDOT": 0
    },
    {
        "OBJECT_NAME": "GSAT0201 (GALILEO 5)",
        "OBJECT_ID": "2014-050A",
        "EPOCH": "2026-06-19T13:44:55.894560",
        "MEAN_MOTION": 1.85520003,
        "ECCENTRICITY": 0.16749227,
        "INCLINATION": 48.8729,
        "RA_OF_ASC_NODE": 273.3385,
        "ARG_OF_PERICENTER": 179.4838,
        "MEAN_ANOMALY": 180.7636,
        "EPHEMERIS_TYPE": 0,
        "CLASSIFICATION_TYPE": "U",
        "NORAD_CAT_ID": 40128,
        "ELEMENT_SET_NO": 999,
        "REV_AT_EPOCH": 7836,
        "BSTAR": 0,
        "MEAN_MOTION_DOT": -7.4e-07,
        "MEAN_MOTION_DDOT": 0
    },
    {
        "OBJECT_NAME": "GSAT0202 (GALILEO 6)",
        "OBJECT_ID": "2014-050B",
        "EPOCH": "2026-06-20T08:49:01.542144",
        "MEAN_MOTION": 1.85520612,
        "ECCENTRICITY": 0.1676264,
        "INCLINATION": 48.8886,
        "RA_OF_ASC_NODE": 272.3914,
        "ARG_OF_PERICENTER": 180.2437,
        "MEAN_ANOMALY": 179.7117,
        "EPHEMERIS_TYPE": 0,
        "CLASSIFICATION_TYPE": "U",
        "NORAD_CAT_ID": 40129,
        "ELEMENT_SET_NO": 999,
        "REV_AT_EPOCH": 8054,
        "BSTAR": 0,
        "MEAN_MOTION_DOT": -8.1e-07,
        "MEAN_MOTION_DDOT": 0
    },
    {
        "OBJECT_NAME": "GSAT0203 (GALILEO 7)",
        "OBJECT_ID": "2015-017A",
        "EPOCH": "2026-06-17T19:11:07.295136",
        "MEAN_MOTION": 1.7047609,
        "ECCENTRICITY": 0.0002098,
        "INCLINATION": 56.7854,
        "RA_OF_ASC_NODE": 341.5787,
        "ARG_OF_PERICENTER": 276.4201,
        "MEAN_ANOMALY": 83.5494,
        "EPHEMERIS_TYPE": 0,
        "CLASSIFICATION_TYPE": "U",
        "NORAD_CAT_ID": 40544,
        "ELEMENT_SET_NO": 999,
        "REV_AT_EPOCH": 6921,
        "BSTAR": 0,
        "MEAN_MOTION_DOT": -9.1e-07,
        "MEAN_MOTION_DDOT": 0
    },
    {
        "OBJECT_NAME": "GSAT0204 (GALILEO 8)",
        "OBJECT_ID": "2015-017B",
        "EPOCH": "2026-06-19T19:33:30.638016",
        "MEAN_MOTION": 1.70475706,
        "ECCENTRICITY": 0.000197,
        "INCLINATION": 56.7939,
        "RA_OF_ASC_NODE": 341.5423,
        "ARG_OF_PERICENTER": 245.5009,
        "MEAN_ANOMALY": 114.4726,
        "EPHEMERIS_TYPE": 0,
        "CLASSIFICATION_TYPE": "U",
        "NORAD_CAT_ID": 40545,
        "ELEMENT_SET_NO": 999,
        "REV_AT_EPOCH": 3229,
        "BSTAR": 0,
        "MEAN_MOTION_DOT": -9.5e-07,
        "MEAN_MOTION_DDOT": 0
    },
    {
        "OBJECT_NAME": "GSAT0205 (GALILEO 9)",
        "OBJECT_ID": "2015-045A",
        "EPOCH": "2026-05-24T07:17:44.873376",
        "MEAN_MOTION": 1.67409242,
        "ECCENTRICITY": 0.00064058,
        "INCLINATION": 54.9357,
        "RA_OF_ASC_NODE": 222.4171,
        "ARG_OF_PERICENTER": 263.0112,
        "MEAN_ANOMALY": 96.9692,
        "EPHEMERIS_TYPE": 0,
        "CLASSIFICATION_TYPE": "U",
        "NORAD_CAT_ID": 40889,
        "ELEMENT_SET_NO": 999,
        "REV_AT_EPOCH": 6656,
        "BSTAR": 0,
        "MEAN_MOTION_DOT": -1.4e-07,
        "MEAN_MOTION_DDOT": 0
    },
    {
        "OBJECT_NAME": "GSAT0206 (GALILEO 10)",
        "OBJECT_ID": "2015-045B",
        "EPOCH": "2026-06-18T01:03:10.689408",
        "MEAN_MOTION": 1.70473811,
        "ECCENTRICITY": 0.00017798,
        "INCLINATION": 54.9444,
        "RA_OF_ASC_NODE": 221.5807,
        "ARG_OF_PERICENTER": 334.3054,
        "MEAN_ANOMALY": 25.7732,
        "EPHEMERIS_TYPE": 0,
        "CLASSIFICATION_TYPE": "U",
        "NORAD_CAT_ID": 40890,
        "ELEMENT_SET_NO": 999,
        "REV_AT_EPOCH": 6705,
        "BSTAR": 0,
        "MEAN_MOTION_DOT": 3.2e-07,
        "MEAN_MOTION_DDOT": 0
    },
    {
        "OBJECT_NAME": "GSAT0209 (GALILEO 12)",
        "OBJECT_ID": "2015-079A",
        "EPOCH": "2026-06-18T05:05:12.477408",
        "MEAN_MOTION": 1.70473656,
        "ECCENTRICITY": 0.000525,
        "INCLINATION": 55.828,
        "RA_OF_ASC_NODE": 101.2339,
        "ARG_OF_PERICENTER": 345.1239,
        "MEAN_ANOMALY": 14.8344,
        "EPHEMERIS_TYPE": 0,
        "CLASSIFICATION_TYPE": "U",
        "NORAD_CAT_ID": 41174,
        "ELEMENT_SET_NO": 999,
        "REV_AT_EPOCH": 6479,
        "BSTAR": 0,
        "MEAN_MOTION_DOT": -1.1e-07,
        "MEAN_MOTION_DDOT": 0
    },
    {
        "OBJECT_NAME": "GSAT0208 (GALILEO 11)",
        "OBJECT_ID": "2015-079B",
        "EPOCH": "2026-06-19T14:31:49.223712",
        "MEAN_MOTION": 1.70473634,
        "ECCENTRICITY": 0.00048541,
        "INCLINATION": 55.8273,
        "RA_OF_ASC_NODE": 101.1925,
        "ARG_OF_PERICENTER": 343.5334,
        "MEAN_ANOMALY": 16.4302,
        "EPHEMERIS_TYPE": 0,
        "CLASSIFICATION_TYPE": "U",
        "NORAD_CAT_ID": 41175,
        "ELEMENT_SET_NO": 999,
        "REV_AT_EPOCH": 6523,
        "BSTAR": 0,
        "MEAN_MOTION_DOT": -1.2e-07,
        "MEAN_MOTION_DDOT": 0
    },
    {
        "OBJECT_NAME": "GSAT0211 (GALILEO 14)",
        "OBJECT_ID": "2016-030A",
        "EPOCH": "2026-06-19T17:30:13.959072",
        "MEAN_MOTION": 1.70473928,
        "ECCENTRICITY": 0.0003049,
        "INCLINATION": 55.0946,
        "RA_OF_ASC_NODE": 221.625,
        "ARG_OF_PERICENTER": 321.1233,
        "MEAN_ANOMALY": 38.9327,
        "EPHEMERIS_TYPE": 0,
        "CLASSIFICATION_TYPE": "U",
        "NORAD_CAT_ID": 41549,
        "ELEMENT_SET_NO": 999,
        "REV_AT_EPOCH": 6271,
        "BSTAR": 0,
        "MEAN_MOTION_DOT": 2.5e-07,
        "MEAN_MOTION_DDOT": 0
    },
    {
        "OBJECT_NAME": "GSAT0210 (GALILEO 13)",
        "OBJECT_ID": "2016-030B",
        "EPOCH": "2026-06-18T05:26:40.812864",
        "MEAN_MOTION": 1.70473788,
        "ECCENTRICITY": 0.0005022,
        "INCLINATION": 55.0944,
        "RA_OF_ASC_NODE": 221.6643,
        "ARG_OF_PERICENTER": 247.0655,
        "MEAN_ANOMALY": 112.9679,
        "EPHEMERIS_TYPE": 0,
        "CLASSIFICATION_TYPE": "U",
        "NORAD_CAT_ID": 41550,
        "ELEMENT_SET_NO": 999,
        "REV_AT_EPOCH": 6268,
        "BSTAR": 0,
        "MEAN_MOTION_DOT": 3.1e-07,
        "MEAN_MOTION_DDOT": 0
    }
]