GSAT0101 (GALILEO-PFM)  
1 37846U 11060A   26171.36791132 -.00000096  00000+0  00000+0 0  9999
2 37846  56.9933 341.6747 0002981  53.5460 306.4763  1.70475663 91176
GSAT0102 (GALILEO-FM2)  
1 37847U 11060B   26170.11569855 -.00000094  00000+0  00000+0 0  9995
2 37847  56.9943 341.7092 0003007  14.4392 342.6958  1.70475868 91155
GSAT0103 (GALILEO-FM3)  
1 38857U 12055A   26168.47561804 -.00000011  00000+0  00000+0 0  9993
2 38857  55.8068 101.5377 0004771 306.3432  53.5821  1.70473345 85011
GSAT0201 (GALILEO 5)    
1 40128U 14050A   26170.57286915 -.00000074  00000+0  00000+0 0  9994
2 40128  48.8729 273.3385 1674922 179.4838 180.7636  1.85520003 78366
GSAT0202 (GALILEO 6)    
1 40129U 14050B   26171.36737896 -.00000081  00000+0  00000+0 0  9990
2 40129  48.8886 272.3914 1676264 180.2437 179.7117  1.85520612 80545
GSAT0203 (GALILEO 7)    
1 40544U 15017A   26168.79938999 -.00000091  00000+0  00000+0 0  9996
2 40544  56.7854 341.5787 0002098 276.4201  83.5494  1.70476090 69215
GSAT0204 (GALILEO 8)    
1 40545U 15017B   26170.81493794 -.00000095  00000+0  00000+0 0  9996
2 40545  56.7939 341.5423 0001970 245.5009 114.4726  1.70475706 32291
GSAT0205 (GALILEO 9)    
1 40889U 15045A   26144.30399159 -.00000014  00000+0  00000+0 0  9994
2 40889  54.9357 222.4171 0006405 263.0112  96.9692  1.67409242 66562
GSAT0206 (GALILEO 10)   
1 40890U 15045B   26169.04387372  .00000032  00000+0  00000+0 0  9997
2 40890  54.9444 221.5807 0001779 334.3054  25.7732  1.70473811 67050
GSAT0209 (GALILEO 12)   
1 41174U 15079A   26169.21194997 -.00000011  00000+0  00000+0 0  9996
2 41174  55.8280 101.2339 0005250 345.1239  14.8344  1.70473656 64794
GSAT0208 (GALILEO 11)   
1 41175U 15079B   26170.60543083 -.00000012  00000+0  00000+0 0  9997
2 41175  55.8273 101.1925 0004854 343.5334  16.4302  1.70473634 65232
GSAT0211 (GALILEO 14)   
1 41549U 16030A   26170.72932823  .00000025  00000+0  00000+0 0  9990
2 41549  55.0946 221.6250 0003049 321.1233  38.9327  1.70473928 62712
GSAT0210 (GALILEO 13)   
1 41550U 16030B   26169.22686126  .00000031  00000+0  00000+0 0  9994
2 41550  55.0944 221.6643 0005022 247.0655 112.9679  1.70473788 62688
